STARLINK-4077           
1 53154U 22083Y   24177.01523226 -.00000439  00000+0 -94965-5 0  9990
2 53154  53.2178  79.4097 0001453 113.5331 246.5814 15.08837443107980
STARLINK-4088           
1 53155U 22083Z   24177.00051065  .00000538  00000+0  51893-4 0  9997
2 53155  53.2180  79.4831 0001228  87.6103 272.5030 15.08845408107987
STARLINK-4087           
1 53156U 22083AA  24176.98946213  .00000412  00000+0  43997-4 0  9999
2 53156  53.2178  79.3977 0001552  68.3484 291.7673 15.08837828107986
STARLINK-4093           
1 53157U 22083AB  24176.99315588  .00001354  00000+0  10313-3 0  9997
2 53157  53.2163  79.5131 0001473 105.1154 255.0001 15.08840455107989
STARLINK-4054           
1 53158U 22083AC  24176.93795719  .00000070  00000+0  22494-4 0  9998
2 53158  53.2185  79.7656 0001574  68.3784 291.7375 15.08841345107349
STARLINK-4111           
1 53159U 22083AD  24177.05203801  .00000351  00000+0  40172-4 0  9994
2 53159  53.2176  79.2460 0001746  69.5037 290.6143 15.08838825107994
STARLINK-4096           
1 53160U 22083AE  24176.13571010  .00003104  00000+0  21299-3 0  9991
2 53160  53.2167  83.3630 0001261  90.5737 269.5399 15.08849863107222
STARLINK-4055           
1 53161U 22083AF  24177.04099535  .00000583  00000+0  54733-4 0  9998
2 53161  53.2175  79.2959 0001216  94.9556 265.1575 15.08836958107990
STARLINK-4114           
1 53162U 22083AG  24176.99043866 -.00000390  00000+0 -64197-5 0  9992
2 53162  53.2179  79.5347 0001509  78.3389 281.7772 15.08837451107985
STARLINK-4104           
1 53163U 22083AH  24177.04837522  .00000438  00000+0  45640-4 0  9992
2 53163  53.2183  79.4098 0001529  76.1389 283.9773 15.08838385107994
STARLINK-4116           
1 53164U 22083AJ  24177.04468539  .00010681  00000+0  68907-3 0  9992
2 53164  53.2184  79.2742 0001669  81.8783 278.2398 15.08791314107996
STARLINK-4090           
1 53165U 22083AK  24177.02995199 -.00000930  00000+0 -40342-4 0  9990
2 53165  53.2166  79.3482 0001222  95.0420 265.0712 15.08851071107990
STARLINK-4110           
1 53166U 22083AL  24177.03731434  .00000440  00000+0  45730-4 0  9992
2 53166  53.2175  79.3090 0001452 110.2756 249.8392 15.08839320107990
STARLINK-3683           
1 53167U 22083AM  24176.91541846 -.00000113  00000+0  11026-4 0  9994
2 53167  53.2190  64.8547 0001527  92.9332 267.1834 15.08830646107540
STARLINK-4105           
1 53168U 22083AN  24176.96739568  .00000004  00000+0  18323-4 0  9995
2 53168  53.2161  79.6254 0001293  87.6549 272.4591 15.08830078107985
STARLINK-4117           
1 53169U 22083AP  24176.95960572  .00000717  00000+0  63140-4 0  9994
2 53169  53.2176  64.9261 0001461  79.5584 280.5573 15.08843269108182
STARLINK-4095           
1 53170U 22083AQ  24176.86297164  .00001019  00000+0  82091-4 0  9998
2 53170  53.2192  75.0577 0001675  74.8916 285.2261 15.08835533108034
STARLINK-4052           
1 53171U 22083AR  24176.97013667  .00007382  00000+0  48187-3 0  9991
2 53171  53.2193  49.3805 0001808  76.7473 283.3721 15.08807424108400
STARLINK-4299           
1 53172U 22083AS  24176.98808406 -.00000639  00000+0 -22039-4 0  9995
2 53172  53.2171  74.4468 0001153 110.4082 249.7034 15.08839572108059
STARLINK-4300           
1 53173U 22083AT  24176.94209338  .00000197  00000+0  30461-4 0  9996
2 53173  53.2179  54.7322 0001370 105.3236 254.7907 15.08838802107681
STARLINK-4205           
1 53174U 22083AU  24177.02998105 -.00001042  00000+0 -47390-4 0  9995
2 53174  53.2181  89.2808 0001461  95.0195 265.0964 15.08842831107851
STARLINK-4292           
1 53175U 22083AV  24177.03271554 -.00000070  00000+0  13685-4 0  9998
2 53175  53.2177  89.3379 0001634  71.9051 288.2119 15.08837858107859
STARLINK-4294           
1 53176U 22083AW  24176.90436181 -.00000937  00000+0 -40792-4 0  9995
2 53176  53.2179  64.8219 0001871 121.6426 238.4749 15.08841205107548
STARLINK-4298           
1 53177U 22083AX  24176.86849326  .00000427  00000+0  44942-4 0  9993
2 53177  53.2182  55.0564 0001363  89.9285 270.1864 15.08840489108313
STARLINK-4280           
1 53178U 22083AY  24176.96003491 -.00000030  00000+0  16189-4 0  9993
2 53178  53.2176  79.6620 0001342  97.8619 262.2525 15.08837347107963
STARLINK-4276           
1 53179U 22083AZ  24176.88638375  .00000585  00000+0  54841-4 0  9991
2 53179  53.2169  39.5926 0001317  90.9317 269.1826 15.08843508107899
STARLINK-4258           
1 53180U 22083BA  24176.91219775  .00018203  00000+0  11602-2 0  9998
2 53180  53.2173  39.7492 0001742 102.4688 257.6499 15.08797218108534
STARLINK-4273           
1 53181U 22083BB  24176.90290929  .00029240  00000+0  18182-2 0  9991
2 53181  53.2171  39.6951 0000496 148.5627 211.5395 15.09429363108539
STARLINK-4278           
1 53182U 22083BC  24176.86481440  .00000813  00000+0  69151-4 0  9996
2 53182  53.2175  55.0798 0001281  89.2020 270.9119 15.08837936107671
STARLINK-4268           
1 53183U 22083BD  24176.87308726  .00000760  00000+0  65841-4 0  9996
2 53183  53.2185  44.9658 0001390  91.6445 268.4706 15.08835687108456
STARLINK-4257           
1 53184U 22083BE  24176.88270530 -.00000124  00000+0  10315-4 0  9990
2 53184  53.2184  39.5963 0001393  84.5979 275.5172 15.08842789108537
STARLINK-4391           
1 53189U 22084A   24177.25001157 -.00049713  00000+0 -38910-2 0  9992
2 53189  97.6557 237.9659 0000199 279.2240  60.9460 15.01282342106317
STARLINK-4332           
1 53190U 22084B   24176.74801081  .00000111  00000+0  13246-4 0  9995
2 53190  97.6544 237.4625 0002019 236.3014 123.8018 15.01257211106527
STARLINK-4369           
1 53191U 22084C   24176.70913838  .00000979  00000+0  80817-4 0  9996
2 53191  97.6538 237.4494 0001679  85.9562 274.1854 15.01261090105844
STARLINK-4375           
1 53192U 22084D   24176.70728520  .00000923  00000+0  76422-4 0  9995
2 53192  97.6548 237.4469 0001633  82.9876 277.1534 15.01260221106511
STARLINK-4351           
1 53193U 22084E   24176.71283857  .00000706  00000+0  59553-4 0  9991
2 53193  97.6560 237.4517 0001409  98.1366 262.0018 15.01258052106232
STARLINK-4382           
1 53194U 22084F   24177.17755231  .00000718  00000+0  60513-4 0  9994
2 53194  97.6554 237.9103 0001632  82.6085 277.5324 15.01263218106293
STARLINK-4404           
1 53195U 22084G   24177.16459049  .00000524  00000+0  45352-4 0  9991
2 53195  97.6529 237.9060 0001751 100.4465 259.6957 15.01262438106297
STARLINK-4407           
1 53196U 22084H   24177.16644230  .00000323  00000+0  29768-4 0  9990
2 53196  97.6537 237.9115 0001676 107.4469 252.6938 15.01260441106299
STARLINK-4403           
1 53197U 22084J   24176.76838582 -.00000565  00000+0 -39382-4 0  9994
2 53197  97.6542 237.5051 0001705  79.3746 280.7670 15.01258091105853
STARLINK-4385           
1 53198U 22084K   24176.70543349  .00000443  00000+0  39055-4 0  9993
2 53198  97.6547 237.4441 0001745  90.2466 269.8958 15.01259862106503
STARLINK-4395           
1 53199U 22084L   24177.17014902  .00000092  00000+0  11749-4 0  9994
2 53199  97.6550 237.8934 0001683  91.5434 268.5983 15.01260859106297
STARLINK-4417           
1 53200U 22084M   24177.16668817  .00000321  00000+0  29596-4 0  9990
2 53200  97.6545 237.9045 0001704  97.9911 262.1507 15.01261049106296
STARLINK-4405           
1 53201U 22084N   24176.75751523  .00000466  00000+0  40897-4 0  9999
2 53201  97.6547 237.4932 0001034 117.3768 242.7562 15.01258196105857
STARLINK-4411           
1 53202U 22084P   24176.69617686  .00001641  00000+0  13233-3 0  9993
2 53202  97.6538 237.4332 0001585  97.0787 263.0617 15.01256114105842
STARLINK-4409           
1 53203U 22084Q   24176.75912603  .00000248  00000+0  23865-4 0  9993
2 53203  97.6546 237.4832 0001256 106.8602 253.2760 15.01255744105856
STARLINK-4410           
1 53204U 22084R   24176.76307009  .00000011  00000+0  54247-5 0  9990
2 53204  97.6543 237.4925 0001688 116.8415 243.2982 15.01262133106518
STARLINK-4397           
1 53205U 22084S   24176.75541890  .00000309  00000+0  28623-4 0  9996
2 53205  97.6545 237.4775 0000681 146.5649 213.5618 15.01257825105859
STARLINK-4408           
1 53206U 22084T   24177.14421732 -.00000200  00000+0 -10969-4 0  9999
2 53206  97.6548 237.8945 0002889 239.9702 120.1236 15.01258347106293
STARLINK-4413           
1 53207U 22084U   24176.75356658  .00000225  00000+0  22129-4 0  9996
2 53207  97.6548 237.4768 0000525 215.4047 144.7143 15.01257415105854
STARLINK-4425           
1 53208U 22084V   24176.69432321  .00001698  00000+0  13676-3 0  9993
2 53208  97.6545 237.4209 0001689 106.3515 253.7895 15.01253727105848
STARLINK-4423           
1 53209U 22084W   24176.75196311  .00002116  00000+0  16927-3 0  9995
2 53209  97.6548 237.4754 0000765 184.4123 175.7095 15.01259231105855
STARLINK-4427           
1 53210U 22084X   24176.75727093  .00000711  00000+0  59962-4 0  9990
2 53210  97.6548 237.4804 0001082 118.8118 241.3215 15.01259307106399
STARLINK-4419           
1 53211U 22084Y   24177.07966480  .00000453  00000+0  39857-4 0  9996
2 53211  97.6544 237.8004 0002301 229.3743 130.7281 15.01260033106289
STARLINK-4416           
1 53212U 22084Z   24177.15162660 -.00004996  00000+0 -38465-3 0  9995
2 53212  97.6551 237.8679 0001865 236.0470 124.0577 15.01261618106297
STARLINK-4414           
1 53213U 22084AA  24177.14238023  .00015838  00000+0  12337-2 0  9996
2 53213  97.6536 237.8592 0004654 209.4799 150.6163 15.01290523106295
STARLINK-4353           
1 53214U 22084AB  24177.14978156 -.00000482  00000+0 -32925-4 0  9993
2 53214  97.6542 237.8665 0001864 229.2454 130.8608 15.01265859106290
STARLINK-4335           
1 53215U 22084AC  24177.14051793 -.00000372  00000+0 -24365-4 0  9990
2 53215  97.6543 237.8558 0004921 214.3562 145.7344 15.01267358106293
STARLINK-4376           
1 53216U 22084AD  24177.14606970 -.00000002  00000+0  44700-5 0  9999
2 53216  97.6547 237.8619 0003314 233.8437 126.2481 15.01261057106294
